OBJECT_NAME,OBJECT_ID,EPOCH,MEAN_MOTION,ECCENTRICITY,INCLINATION,RA_OF_ASC_NODE,ARG_OF_PERICENTER,MEAN_ANOMALY,EPHEMERIS_TYPE,CLASSIFICATION_TYPE,NORAD_CAT_ID,ELEMENT_SET_NO,REV_AT_EPOCH,BSTAR,MEAN_MOTION_DOT,MEAN_MOTION_DDOT
STARLINK-36312,2026-018W,2026-07-06T16:21:43.358976,15.33456894,.0000439,97.2851,252.2608,94.8136,265.3156,0,U,67609,999,2557,.56484E-3,.18211E-3,0
STARLINK-36387,2026-018X,2026-07-06T19:51:21.514176,15.44553434,.0001249,97.2840,259.0836,181.8894,178.2351,0,U,67610,999,2603,-.79992E-2,-.354628E-2,0
STARLINK-36636,2026-018Y,2026-07-06T17:32:10.963680,15.33418924,.00007,97.2836,252.1966,207.9830,152.1375,0,U,67611,999,2557,.54073E-3,.17407E-3,0
STARLINK-36407,2026-018Z,2026-07-06T16:13:52.294080,15.33441388,.0001486,97.2840,252.2682,70.0298,290.1105,0,U,67612,999,2562,.59978E-3,.19336E-3,0
STARLINK-36597,2026-018AA,2026-07-06T17:12:37.048608,15.33458730,.0000464,97.2847,252.2145,93.8886,266.2410,0,U,67613,999,2557,.62045E-3,.20017E-3,0
STARLINK-36548,2026-020A,2026-07-06T17:11:07.854432,15.27568888,.0000652,42.9998,187.8997,289.0237,71.0544,0,U,67617,999,2431,.5017E-3,.13564E-3,0
STARLINK-36601,2026-020B,2026-07-06T16:50:46.490208,15.27554891,.0002019,43.0012,187.7684,273.8489,86.2132,0,U,67618,999,2431,.31261E-3,.8343E-4,0
STARLINK-36119,2026-020C,2026-07-06T17:01:53.131008,15.27552432,.0001153,43.0000,187.8435,275.8570,84.2150,0,U,67619,999,2431,.5553E-3,.15037E-3,0
STARLINK-36607,2026-020D,2026-07-06T09:44:11.065632,15.27546487,.00013885,43.0021,188.9857,270.6871,89.3822,0,U,67620,999,2427,.70702265E-3,.19224E-3,0
STARLINK-36615,2026-020E,2026-07-06T17:14:49.620768,15.27582451,.0001695,43.0049,187.8967,278.1116,81.9544,0,U,67621,999,2431,.43305E-3,.11674E-3,0
STARLINK-36614,2026-020F,2026-07-06T08:56:17.818080,15.27540944,.00010939,42.9988,189.6061,269.6431,90.4296,0,U,67622,999,2426,.55033402E-3,.14895E-3,0
STARLINK-36600,2026-020G,2026-07-06T16:56:20.109120,15.27526758,.0002062,43.0028,187.8155,249.4913,110.5718,0,U,67623,999,2431,.61794E-3,.16754E-3,0
STARLINK-36439,2026-020H,2026-07-06T08:41:30.263712,15.27552773,.00007614,42.9997,189.5312,218.7184,141.3613,0,U,67624,999,2426,.95331391E-3,.26042E-3,0
STARLINK-36438,2026-020J,2026-07-06T16:43:22.708704,15.27548714,.0001568,43.0008,187.7428,270.0156,90.0516,0,U,67625,999,2431,.40355E-3,.10849E-3,0
STARLINK-36436,2026-020K,2026-07-06T02:04:29.599680,15.27587280,.0001219,43.0009,190.8918,257.7691,102.3024,0,U,67626,999,2422,.9444E-3,.25822E-3,0
STARLINK-36502,2026-020L,2026-07-06T08:35:56.213664,15.27546791,.00011047,42.9996,189.5040,273.9394,86.1331,0,U,67627,999,2426,.67821369E-3,.18429E-3,0
STARLINK-36532,2026-020M,2026-07-06T10:02:40.980768,15.27558302,.00017034,43.0015,189.0791,266.5048,93.5609,0,U,67628,999,2427,.48235796E-3,.13026E-3,0
STARLINK-36367,2026-020N,2026-07-06T11:27:35.597376,15.27552441,.0001761,43.0013,188.6692,283.7063,76.3592,0,U,67629,999,2428,.49034E-3,.13244E-3,0
STARLINK-36416,2026-020P,2026-07-06T16:37:48.383040,15.27591343,.0002231,43.0017,187.7094,271.4207,88.6389,0,U,67630,999,2431,.94403E-3,.25816E-3,0
STARLINK-36527,2026-020Q,2026-07-06T17:24:03.570048,15.27565971,.0002059,43.0040,187.9545,260.6553,99.4066,0,U,67631,999,2431,.59584E-3,.16163E-3,0
STARLINK-36633,2026-020R,2026-07-06T17:03:44.053056,15.27551716,.0001657,43.0026,187.8457,270.6733,89.3929,0,U,67632,999,2431,.62469E-3,.16953E-3,0
STARLINK-36637,2026-020S,2026-07-06T16:35:58.488288,15.27555587,.0002164,42.9997,187.6970,275.1234,84.9371,0,U,67633,999,2431,.63326E-3,.17192E-3,0
STARLINK-36617,2026-020T,2026-07-06T09:37:00.484320,15.27561064,.00011619,43.0022,189.8235,335.7558,24.3239,0,U,67634,999,2426,.89095645E-3,.24322E-3,0
STARLINK-36627,2026-020U,2026-07-06T08:34:03.983520,15.27598537,.00012739,42.9992,189.4870,271.1465,88.9241,0,U,67635,999,2426,.13859395E-2,.38095E-3,0
STARLINK-36624,2026-020V,2026-07-06T09:42:19.863648,15.27554068,.00020065,43.0036,188.9727,285.5047,74.5583,0,U,67636,999,2427,.86983052E-3,.23732E-3,0
STARLINK-36610,2026-020W,2026-07-06T08:39:37.802016,15.27555249,.00025473,43.0010,189.5117,282.1996,77.8570,0,U,67637,999,2426,.52951363E-3,.14327E-3,0
STARLINK-36599,2026-020X,2026-07-06T17:22:13.804032,15.27560383,.000286,43.0064,187.9377,267.9350,92.1174,0,U,67638,999,2431,.55514E-3,.15037E-3,0
STARLINK-36595,2026-020Y,2026-07-06T16:41:31.446240,15.27553683,.0002086,43.0015,187.7160,272.0026,88.0586,0,U,67639,999,2431,.59977E-3,.16266E-3,0
STARLINK-36570,2026-020Z,2026-07-06T00:34:02.165952,15.27567832,.0001503,42.9976,191.2767,258.6746,101.3936,0,U,67640,999,2421,.70124E-3,.19077E-3,0
STARLINK-36514,2026-020AA,2026-07-06T17:18:32.265792,15.27547003,.0000984,43.0031,187.9129,258.2557,101.8185,0,U,67641,999,2431,.47216E-3,.1274E-3,0
