STARLINK-36312          
1 67609U 26018W   26187.68175184  .00018211  00000+0  56484-3 0  9991
2 67609  97.2851 252.2608 0000439  94.8136 265.3156 15.33456894 25579
STARLINK-36387          
1 67610U 26018X   26187.82733234 -.00354628  00000+0 -79992-2 0  9990
2 67610  97.2840 259.0836 0001249 181.8894 178.2351 15.44553434 26036
STARLINK-36636          
1 67611U 26018Y   26187.73068245  .00017407  00000+0  54073-3 0  9997
2 67611  97.2836 252.1966 0000700 207.9830 152.1375 15.33418924 25578
STARLINK-36407          
1 67612U 26018Z   26187.67629970  .00019336  00000+0  59978-3 0  9991
2 67612  97.2840 252.2682 0001486  70.0298 290.1105 15.33441388 25629
STARLINK-36597          
1 67613U 26018AA  26187.71709547  .00020017  00000+0  62045-3 0  9993
2 67613  97.2847 252.2145 0000464  93.8886 266.2410 15.33458730 25578
STARLINK-36548          
1 67617U 26020A   26187.71606313  .00013564  00000+0  50170-3 0  9992
2 67617  42.9998 187.8997 0000652 289.0237  71.0544 15.27568888 24312
STARLINK-36601          
1 67618U 26020B   26187.70192697  .00008343  00000+0  31261-3 0  9996
2 67618  43.0012 187.7684 0002019 273.8489  86.2132 15.27554891 24313
STARLINK-36119          
1 67619U 26020C   26187.70964272  .00015037  00000+0  55530-3 0  9996
2 67619  43.0000 187.8435 0001153 275.8570  84.2150 15.27552432 24314
STARLINK-36607          
1 67620U 26020D   26187.40568363  .00019224  00000+0  70702-3 0  9996
2 67620  43.0021 188.9857 0001388 270.6871  89.3822 15.27546487 24276
STARLINK-36615          
1 67621U 26020E   26187.71862987  .00011674  00000+0  43305-3 0  9990
2 67621  43.0049 187.8967 0001695 278.1116  81.9544 15.27582451 24318
STARLINK-36614          
1 67622U 26020F   26187.37242845  .00014895  00000+0  55033-3 0  9997
2 67622  42.9988 189.6061 0001093 269.6431  90.4296 15.27540944 24265
STARLINK-36600          
1 67623U 26020G   26187.70578830  .00016754  00000+0  61794-3 0  9998
2 67623  43.0028 187.8155 0002062 249.4913 110.5718 15.27526758 24311
STARLINK-36439          
1 67624U 26020H   26187.36215583  .00026042  00000+0  95331-3 0  9999
2 67624  42.9997 189.5312 0000761 218.7184 141.3613 15.27552773 24268
STARLINK-36438          
1 67625U 26020J   26187.69679061  .00010849  00000+0  40355-3 0  9995
2 67625  43.0008 187.7428 0001568 270.0156  90.0516 15.27548714 24316
STARLINK-36436          
1 67626U 26020K   26187.08645370  .00025822  00000+0  94440-3 0  9996
2 67626  43.0009 190.8918 0001219 257.7691 102.3024 15.27587280 24228
STARLINK-36502          
1 67627U 26020L   26187.35828951  .00018429  00000+0  67821-3 0  9993
2 67627  42.9996 189.5040 0001104 273.9394  86.1331 15.27546791 24262
STARLINK-36532          
1 67628U 26020M   26187.41852987  .00013026  00000+0  48236-3 0  9994
2 67628  43.0015 189.0791 0001703 266.5048  93.5609 15.27558302 24276
STARLINK-36367          
1 67629U 26020N   26187.47749534  .00013244  00000+0  49034-3 0  9993
2 67629  43.0013 188.6692 0001761 283.7063  76.3592 15.27552441 24281
STARLINK-36416          
1 67630U 26020P   26187.69292110  .00025816  00000+0  94403-3 0  9990
2 67630  43.0017 187.7094 0002231 271.4207  88.6389 15.27591343 24318
STARLINK-36527          
1 67631U 26020Q   26187.72504132  .00016163  00000+0  59584-3 0  9991
2 67631  43.0040 187.9545 0002059 260.6553  99.4066 15.27565971 24310
STARLINK-36633          
1 67632U 26020R   26187.71092654  .00016953  00000+0  62469-3 0  9995
2 67632  43.0026 187.8457 0001657 270.6733  89.3929 15.27551716 24318
STARLINK-36637          
1 67633U 26020S   26187.69164917  .00017192  00000+0  63326-3 0  9994
2 67633  42.9997 187.6970 0002164 275.1234  84.9371 15.27555587 24314
STARLINK-36617          
1 67634U 26020T   26187.40070005  .00024322  00000+0  89096-3 0  9993
2 67634  43.0022 189.8235 0001161 335.7558  24.3239 15.27561064 24264
STARLINK-36627          
1 67635U 26020U   26187.35699055  .00038095  00000+0  13859-2 0  9995
2 67635  42.9992 189.4870 0001273 271.1465  88.9241 15.27598537 24268
STARLINK-36624          
1 67636U 26020V   26187.40439657  .00023732  00000+0  86983-3 0  9993
2 67636  43.0036 188.9727 0002006 285.5047  74.5583 15.27554068 24277
STARLINK-36610          
1 67637U 26020W   26187.36085419  .00014327  00000+0  52951-3 0  9990
2 67637  43.0010 189.5117 0002547 282.1996  77.8570 15.27555249 24269
STARLINK-36599          
1 67638U 26020X   26187.72377088  .00015037  00000+0  55514-3 0  9994
2 67638  43.0064 187.9377 0002860 267.9350  92.1174 15.27560383 24313
STARLINK-36595          
1 67639U 26020Y   26187.69550285  .00016266  00000+0  59977-3 0  9995
2 67639  43.0015 187.7160 0002086 272.0026  88.0586 15.27553683 24311
STARLINK-36570          
1 67640U 26020Z   26187.02363618  .00019077  00000+0  70124-3 0  9996
2 67640  42.9976 191.2767 0001503 258.6746 101.3936 15.27567832 24210
STARLINK-36514          
1 67641U 26020AA  26187.72120678  .00012740  00000+0  47216-3 0  9997
2 67641  43.0031 187.9129 0000984 258.2557 101.8185 15.27547003 24317
